ONEWEB-0102             
1 47258U 20100A   24255.15943919  .00000313  00000+0  83348-3 0  9993
2 47258  87.8887 118.9583 0001876  81.2939 278.8402 13.12443306180257
ONEWEB-0109             
1 47259U 20100B   24255.54873242  .00000231  00000+0  60713-3 0  9998
2 47259  87.8889 118.8464 0001841  82.4445 277.6893 13.12442796180134
ONEWEB-0110             
1 47260U 20100C   24255.34596101 -.00000306  00000+0 -88625-3 0  9991
2 47260  87.8883 118.8871 0001689  84.1884 275.9437 13.12445553180272
ONEWEB-0111             
1 47261U 20100D   24255.52927010  .00000317  00000+0  84542-3 0  9993
2 47261  87.8885 118.8511 0001778  80.5742 279.5588 13.12444850180139
ONEWEB-0114             
1 47262U 20100E   24255.56009955 -.00000146  00000+0 -44137-3 0  9995
2 47262  87.8882 118.8568 0002072  81.6938 278.4426 13.12441743180098
ONEWEB-0117             
1 47263U 20100F   24255.55197771  .00000181  00000+0  46785-3 0  9997
2 47263  87.8887 118.8375 0001681  78.7452 281.3866 13.12442329180107
ONEWEB-0118             
1 47264U 20100G   24255.05075757 -.00000191  00000+0 -56598-3 0  9998
2 47264  87.8887 118.9407 0002015  71.5260 288.6087 13.12443311180236
ONEWEB-0119             
1 47265U 20100H   24255.53576108  .00000431  00000+0  11617-2 0  9995
2 47265  87.8886 118.8828 0001726  81.4647 278.6677 13.12444397180272
